[Satellite]
VERSION=1.1
NAME=COSMOS 2492 (754)
NICKNAME=COSMOS 2492 (754)
TLE1=1 39620U 14012A   22342.22835946 -.00000063  00000+0  00000+0 0  9998
TLE2=2 39620  65.8212 357.3227 0013847 312.5653 101.6381  2.13103188 67812
STATUS=0
